{
  "type": "FeatureCollection",
  "features": [
    {
      "type": "Feature",
      "properties": {
        "norad_id": 30884,
        "name": "FENGYUN 1C DEB",
        "group": "fengyun-1c-debris",
        "lat": 47.52141015426106,
        "lon": 178.30641396982156,
        "alt_km": 691.6953281836122,
        "timestamp": "2025-12-19T22:41:52.672625+00:00",
        "meta_object_name": "FENGYUN 1C DEB",
        "meta_object_id": "1999-025AXW",
        "meta_epoch": "2025-12-19T17:12:41.621760",
        "meta_mean_motion": 14.73647746,
        "meta_eccentricity": 0.0066179,
        "meta_inclination": 98.8901,
        "meta_ra_of_asc_node": 348.2134,
        "meta_arg_of_pericenter": 313.915,
        "meta_mean_anomaly": 45.6604,
        "meta_ephemeris_type": 0,
        "meta_classification_type": "U",
        "meta_norad_cat_id": 30884,
        "meta_element_set_no": 999,
        "meta_rev_at_epoch": 98764,
        "meta_bstar": 0.0012706,
        "meta_mean_motion_dot": 8.523e-05,
        "meta_mean_motion_ddot": 0,
        "tle_line1": "1 30884U 99025AXW 25353.71714840  .00008523  00000+0  12706-2 0  9993",
        "tle_line2": "2 30884  98.8901 348.2134 0066179 313.9150  45.6604 14.73647746987644"
      },
      "geometry": {
        "type": "Point",
        "coordinates": [
          178.30641396982156,
          47.52141015426106
        ]
      }
    },
    {
      "type": "Feature",
      "properties": {
        "norad_id": 30885,
        "name": "FENGYUN 1C DEB",
        "group": "fengyun-1c-debris",
        "lat": -80.84563262697705,
        "lon": -84.4788694163385,
        "alt_km": 723.7679974869216,
        "timestamp": "2025-12-19T22:41:52.672635+00:00",
        "meta_object_name": "FENGYUN 1C DEB",
        "meta_object_id": "1999-025AXX",
        "meta_epoch": "2025-12-18T08:09:53.663616",
        "meta_mean_motion": 14.49530378,
        "meta_eccentricity": 0.00533985,
        "meta_inclination": 99.0262,
        "meta_ra_of_asc_node": 193.2608,
        "meta_arg_of_pericenter": 202.3091,
        "meta_mean_anomaly": 335.1108,
        "meta_ephemeris_type": 0,
        "meta_classification_type": "U",
        "meta_norad_cat_id": 30885,
        "meta_element_set_no": 999,
        "meta_rev_at_epoch": 97058,
        "meta_bstar": 0.0020644444,
        "meta_mean_motion_dot": 8.017e-05,
        "meta_mean_motion_ddot": 0,
        "tle_line1": "1 30885U 99025AXX 25352.34020444  .00008017  00000+0  20644-2 0  9990",
        "tle_line2": "2 30885  99.0262 193.2608 0053398 202.3091 335.1108 14.49530378970582"
      },
      "geometry": {
        "type": "Point",
        "coordinates": [
          -84.4788694163385,
          -80.84563262697705
        ]
      }
    },
    {
      "type": "Feature",
      "properties": {
        "norad_id": 30886,
        "name": "FENGYUN 1C DEB",
        "group": "fengyun-1c-debris",
        "lat": -11.84546829410108,
        "lon": 65.29773369155211,
        "alt_km": 846.281928166467,
        "timestamp": "2025-12-19T22:41:52.672645+00:00",
        "meta_object_name": "FENGYUN 1C DEB",
        "meta_object_id": "1999-025AXY",
        "meta_epoch": "2025-12-19T09:59:08.060064",
        "meta_mean_motion": 14.22831086,
        "meta_eccentricity": 0.0036443,
        "meta_inclination": 99.2096,
        "meta_ra_of_asc_node": 246.6943,
        "meta_arg_of_pericenter": 16.2171,
        "meta_mean_anomaly": 344.0163,
        "meta_ephemeris_type": 0,
        "meta_classification_type": "U",
        "meta_norad_cat_id": 30886,
        "meta_element_set_no": 999,
        "meta_rev_at_epoch": 96491,
        "meta_bstar": 0.0013231,
        "meta_mean_motion_dot": 2.943e-05,
        "meta_mean_motion_ddot": 0,
        "tle_line1": "1 30886U 99025AXY 25353.41606551  .00002943  00000+0  13231-2 0  9995",
        "tle_line2": "2 30886  99.2096 246.6943 0036443  16.2171 344.0163 14.22831086964919"
      },
      "geometry": {
        "type": "Point",
        "coordinates": [
          65.29773369155211,
          -11.84546829410108
        ]
      }
    },
    {
      "type": "Feature",
      "properties": {
        "norad_id": 30887,
        "name": "FENGYUN 1C DEB",
        "group": "fengyun-1c-debris",
        "lat": 12.49365987225198,
        "lon": 47.84635541373882,
        "alt_km": 793.6444954467661,
        "timestamp": "2025-12-19T22:41:52.672656+00:00",
        "meta_object_name": "FENGYUN 1C DEB",
        "meta_object_id": "1999-025AXZ",
        "meta_epoch": "2025-12-19T14:19:44.455584",
        "meta_mean_motion": 14.44859593,
        "meta_eccentricity": 0.02636,
        "meta_inclination": 98.3685,
        "meta_ra_of_asc_node": 49.3716,
        "meta_arg_of_pericenter": 266.9146,
        "meta_mean_anomaly": 90.1856,
        "meta_ephemeris_type": 0,
        "meta_classification_type": "U",
        "meta_norad_cat_id": 30887,
        "meta_element_set_no": 999,
        "meta_rev_at_epoch": 98227,
        "meta_bstar": 0.0004758,
        "meta_mean_motion_dot": 2.48e-05,
        "meta_mean_motion_ddot": 0,
        "tle_line1": "1 30887U 99025AXZ 25353.59704231  .00002480  00000+0  47580-3 0  9990",
        "tle_line2": "2 30887  98.3685  49.3716 0263600 266.9146  90.1856 14.44859593982277"
      },
      "geometry": {
        "type": "Point",
        "coordinates": [
          47.84635541373882,
          12.49365987225198
        ]
      }
    },
    {
      "type": "Feature",
      "properties": {
        "norad_id": 30888,
        "name": "FENGYUN 1C DEB",
        "group": "fengyun-1c-debris",
        "lat": 20.053082076408018,
        "lon": -29.265644714421835,
        "alt_km": 602.7836228340348,
        "timestamp": "2025-12-19T22:41:52.672668+00:00",
        "meta_object_name": "FENGYUN 1C DEB",
        "meta_object_id": "1999-025AYA",
        "meta_epoch": "2025-12-19T11:21:17.991360",
        "meta_mean_motion": 14.94021455,
        "meta_eccentricity": 0.0083413,
        "meta_inclination": 99.4836,
        "meta_ra_of_asc_node": 333.6628,
        "meta_arg_of_pericenter": 129.7714,
        "meta_mean_anomaly": 231.0886,
        "meta_ephemeris_type": 0,
        "meta_classification_type": "U",
        "meta_norad_cat_id": 30888,
        "meta_element_set_no": 999,
        "meta_rev_at_epoch": 17,
        "meta_bstar": 0.00063328,
        "meta_mean_motion_dot": 7.154e-05,
        "meta_mean_motion_ddot": 0,
        "tle_line1": "1 30888U 99025AYA 25353.47312490  .00007154  00000+0  63328-3 0  9991",
        "tle_line2": "2 30888  99.4836 333.6628 0083413 129.7714 231.0886 14.94021455   170"
      },
      "geometry": {
        "type": "Point",
        "coordinates": [
          -29.265644714421835,
          20.053082076408018
        ]
      }
    },
    {
      "type": "Feature",
      "properties": {
        "norad_id": 30891,
        "name": "FENGYUN 1C DEB",
        "group": "fengyun-1c-debris",
        "lat": 3.2702072100887176,
        "lon": -138.14609556641506,
        "alt_km": 836.0624212315151,
        "timestamp": "2025-12-19T22:41:52.672684+00:00",
        "meta_object_name": "FENGYUN 1C DEB",
        "meta_object_id": "1999-025AYD",
        "meta_epoch": "2025-12-19T09:58:48.614880",
        "meta_mean_motion": 14.05884099,
        "meta_eccentricity": 0.0055672,
        "meta_inclination": 98.7842,
        "meta_ra_of_asc_node": 40.8339,
        "meta_arg_of_pericenter": 168.9983,
        "meta_mean_anomaly": 207.0014,
        "meta_ephemeris_type": 0,
        "meta_classification_type": "U",
        "meta_norad_cat_id": 30891,
        "meta_element_set_no": 999,
        "meta_rev_at_epoch": 96076,
        "meta_bstar": 0.00069336,
        "meta_mean_motion_dot": 1.108e-05,
        "meta_mean_motion_ddot": 0,
        "tle_line1": "1 30891U 99025AYD 25353.41584045  .00001108  00000+0  69336-3 0  9994",
        "tle_line2": "2 30891  98.7842  40.8339 0055672 168.9983 207.0014 14.05884099960767"
      },
      "geometry": {
        "type": "Point",
        "coordinates": [
          -138.14609556641506,
          3.2702072100887176
        ]
      }
    },
    {
      "type": "Feature",
      "properties": {
        "norad_id": 30892,
        "name": "FENGYUN 1C DEB",
        "group": "fengyun-1c-debris",
        "lat": 64.08162543455572,
        "lon": -82.75681916861112,
        "alt_km": 828.7048005894685,
        "timestamp": "2025-12-19T22:41:52.672694+00:00",
        "meta_object_name": "FENGYUN 1C DEB",
        "meta_object_id": "1999-025AYE",
        "meta_epoch": "2025-12-13T14:04:34.549536",
        "meta_mean_motion": 14.18924802,
        "meta_eccentricity": 0.00379168,
        "meta_inclination": 99.663,
        "meta_ra_of_asc_node": 290.842,
        "meta_arg_of_pericenter": 186.6804,
        "meta_mean_anomaly": 173.3868,
        "meta_ephemeris_type": 0,
        "meta_classification_type": "U",
        "meta_norad_cat_id": 30892,
        "meta_element_set_no": 999,
        "meta_rev_at_epoch": 64315,
        "meta_bstar": 0.00057005886,
        "meta_mean_motion_dot": 1.145e-05,
        "meta_mean_motion_ddot": 0,
        "tle_line1": "1 30892U 99025AYE 25347.58651099  .00001145  00000+0  57006-3 0  9992",
        "tle_line2": "2 30892  99.6630 290.8420 0037916 186.6804 173.3868 14.18924802643155"
      },
      "geometry": {
        "type": "Point",
        "coordinates": [
          -82.75681916861112,
          64.08162543455572
        ]
      }
    }
  ]
}